{"type": "FeatureCollection", "features": [ {"type": "Feature", "properties": {"norad_id": 40664, "name": "SKY MEXICO-1", "group": "intelsat", "lat": 0.025608988448563984, "lon": 130.5835212794693, "alt_km": 35796.5503254226, "timestamp": "2025-12-25T07:41:09.390743+00:00", "meta": {"OBJECT_NAME": "SKY MEXICO-1", "OBJECT_ID": "2015-026B", "EPOCH": "2025-12-24T11:53:52.482912", "MEAN_MOTION": 1.00270263, "ECCENTRICITY": 0.00025222, "INCLINATION": 0.0127, "RA_OF_ASC_NODE": 356.0381, "ARG_OF_PERICENTER": 293.7929, "MEAN_ANOMALY": 263.1411, "EPHEMERIS_TYPE": 0, "CLASSIFICATION_TYPE": "U", "NORAD_CAT_ID": 40664, "ELEMENT_SET_NO": 999, "REV_AT_EPOCH": 3870, "BSTAR": 0, "MEAN_MOTION_DOT": -2.13e-06, "MEAN_MOTION_DDOT": 0}, "tle": {"line1": "1 40664U 15026B   25358.49574633 -.00000213  00000+0  00000+0 0  9993", "line2": "2 40664   0.0127 356.0381 0002522 293.7929 263.1411  1.00270263 38707"}}, "geometry": {"type": "Point", "coordinates": [130.5835212794693, 0.025608988448563984]}}, {"type": "Feature", "properties": {"norad_id": 40874, "name": "INTELSAT 34 (IS-34)", "group": "intelsat", "lat": 0.004559059878294828, "lon": 153.8634695415774, "alt_km": 35784.034796503984, "timestamp": "2025-12-25T07:41:09.390755+00:00", "meta": {"OBJECT_NAME": "INTELSAT 34 (IS-34)", "OBJECT_ID": "2015-039A", "EPOCH": "2025-12-24T19:41:03.236640", "MEAN_MOTION": 1.00269915, "ECCENTRICITY": 6.326e-05, "INCLINATION": 0.0112, "RA_OF_ASC_NODE": 321.6205, "ARG_OF_PERICENTER": 200.7023, "MEAN_ANOMALY": 171.0333, "EPHEMERIS_TYPE": 0, "CLASSIFICATION_TYPE": "U", "NORAD_CAT_ID": 40874, "ELEMENT_SET_NO": 999, "REV_AT_EPOCH": 3787, "BSTAR": 0, "MEAN_MOTION_DOT": -2.64e-06, "MEAN_MOTION_DDOT": 0}, "tle": {"line1": "1 40874U 15039A   25358.82017635 -.00000264  00000+0  00000+0 0  9997", "line2": "2 40874   0.0112 321.6205 0000632 200.7023 171.0333  1.00269915 37879"}}, "geometry": {"type": "Point", "coordinates": [153.8634695415774, 0.004559059878294828]}}, {"type": "Feature", "properties": {"norad_id": 41581, "name": "INTELSAT 31 (IS-31)", "group": "intelsat", "lat": 0.008672519496419994, "lon": 114.27095013058502, "alt_km": 35786.920055990704, "timestamp": "2025-12-25T07:41:09.390767+00:00", "meta": {"OBJECT_NAME": "INTELSAT 31 (IS-31)", "OBJECT_ID": "2016-035A", "EPOCH": "2025-12-23T19:31:44.703840", "MEAN_MOTION": 1.00269658, "ECCENTRICITY": 0.0001926, "INCLINATION": 0.0283, "RA_OF_ASC_NODE": 262.055, "ARG_OF_PERICENTER": 303.365, "MEAN_ANOMALY": 85.0534, "EPHEMERIS_TYPE": 0, "CLASSIFICATION_TYPE": "U", "NORAD_CAT_ID": 41581, "ELEMENT_SET_NO": 999, "REV_AT_EPOCH": 3492, "BSTAR": 0, "MEAN_MOTION_DOT": -1.29e-06, "MEAN_MOTION_DDOT": 0}, "tle": {"line1": "1 41581U 16035A   25357.81371185 -.00000129  00000+0  00000+0 0  9991", "line2": "2 41581   0.0283 262.0550 0001926 303.3650  85.0534  1.00269658 34922"}}, "geometry": {"type": "Point", "coordinates": [114.27095013058502, 0.008672519496419994]}}, {"type": "Feature", "properties": {"norad_id": 41747, "name": "INTELSAT 36 (IS-36)", "group": "intelsat", "lat": -0.03204307835886129, "lon": -82.15393456052425, "alt_km": 35782.878631072716, "timestamp": "2025-12-25T07:41:09.390778+00:00", "meta": {"OBJECT_NAME": "INTELSAT 36 (IS-36)", "OBJECT_ID": "2016-053A", "EPOCH": "2025-12-24T20:06:06.128352", "MEAN_MOTION": 1.00271083, "ECCENTRICITY": 0.00011781, "INCLINATION": 0.011, "RA_OF_ASC_NODE": 13.055, "ARG_OF_PERICENTER": 311.9516, "MEAN_ANOMALY": 138.6177, "EPHEMERIS_TYPE": 0, "CLASSIFICATION_TYPE": "U", "NORAD_CAT_ID": 41747, "ELEMENT_SET_NO": 999, "REV_AT_EPOCH": 3420, "BSTAR": 0, "MEAN_MOTION_DOT": -3e-08, "MEAN_MOTION_DDOT": 0}, "tle": {"line1": "1 41747U 16053A   25358.83757093 -.00000003  00000+0  00000+0 0  9995", "line2": "2 41747   0.0110  13.0550 0001178 311.9516 138.6177  1.00271083 34208"}}, "geometry": {"type": "Point", "coordinates": [-82.15393456052425, -0.03204307835886129]}}, {"type": "Feature", "properties": {"norad_id": 41945, "name": "INTELSAT 32E (IS-32E)", "group": "intelsat", "lat": 0.03220609984771845, "lon": 166.19111688989574, "alt_km": 35788.643603932076, "timestamp": "2025-12-25T07:41:09.390790+00:00", "meta": {"OBJECT_NAME": "INTELSAT 32E (IS-32E)", "OBJECT_ID": "2017-007B", "EPOCH": "2025-12-24T19:44:32.901792", "MEAN_MOTION": 1.00269314, "ECCENTRICITY": 5.734e-05, "INCLINATION": 0.0239, "RA_OF_ASC_NODE": 70.0768, "ARG_OF_PERICENTER": 316.8517, "MEAN_ANOMALY": 319.6269, "EPHEMERIS_TYPE": 0, "CLASSIFICATION_TYPE": "U", "NORAD_CAT_ID": 41945, "ELEMENT_SET_NO": 999, "REV_AT_EPOCH": 3247, "BSTAR": 0, "MEAN_MOTION_DOT": -2.48e-06, "MEAN_MOTION_DDOT": 0}, "tle": {"line1": "1 41945U 17007B   25358.82260303 -.00000248  00000+0  00000+0 0  9998", "line2": "2 41945   0.0239  70.0768 0000573 316.8517 319.6269  1.00269314 32471"}}, "geometry": {"type": "Point", "coordinates": [166.19111688989574, 0.03220609984771845]}}, {"type": "Feature", "properties": {"norad_id": 42818, "name": "INTELSAT 35E (IS-35E)", "group": "intelsat", "lat": 0.017418409130416118, "lon": 174.8265804355977, "alt_km": 35788.937460563975, "timestamp": "2025-12-25T07:41:09.390801+00:00", "meta": {"OBJECT_NAME": "INTELSAT 35E (IS-35E)", "OBJECT_ID": "2017-041A", "EPOCH": "2025-12-24T19:47:02.663232", "MEAN_MOTION": 1.00269135, "ECCENTRICITY": 0.00019942, "INCLINATION": 0.0182, "RA_OF_ASC_NODE": 26.5073, "ARG_OF_PERICENTER": 252.54, "MEAN_ANOMALY": 76.7961, "EPHEMERIS_TYPE": 0, "CLASSIFICATION_TYPE": "U", "NORAD_CAT_ID": 42818, "ELEMENT_SET_NO": 999, "REV_AT_EPOCH": 3106, "BSTAR": 0, "MEAN_MOTION_DOT": -2.17e-06, "MEAN_MOTION_DDOT": 0}, "tle": {"line1": "1 42818U 17041A   25358.82433638 -.00000217  00000+0  00000+0 0  9995", "line2": "2 42818   0.0182  26.5073 0001994 252.5400  76.7961  1.00269135 31063"}}, "geometry": {"type": "Point", "coordinates": [174.8265804355977, 0.017418409130416118]}}, {"type": "Feature", "properties": {"norad_id": 42950, "name": "INTELSAT 37E (IS-37E)", "group": "intelsat", "lat": 0.005828436156209138, "lon": -168.66728893490315, "alt_km": 35782.4256429212, "timestamp": "2025-12-25T07:41:09.390813+00:00", "meta": {"OBJECT_NAME": "INTELSAT 37E (IS-37E)", "OBJECT_ID": "2017-059A", "EPOCH": "2025-12-24T21:34:29.870976", "MEAN_MOTION": 1.00269841, "ECCENTRICITY": 0.00031151, "INCLINATION": 0.0205, "RA_OF_ASC_NODE": 23.2714, "ARG_OF_PERICENTER": 239.3104, "MEAN_ANOMALY": 136.7145, "EPHEMERIS_TYPE": 0, "CLASSIFICATION_TYPE": "U", "NORAD_CAT_ID": 42950, "ELEMENT_SET_NO": 999, "REV_AT_EPOCH": 3031, "BSTAR": 0, "MEAN_MOTION_DOT": 0, "MEAN_MOTION_DDOT": 0}, "tle": {"line1": "1 42950U 17059A   25358.89895684  .00000000  00000+0  00000+0 0  9990", "line2": "2 42950   0.0205  23.2714 0003115 239.3104 136.7145  1.00269841 30315"}}, "geometry": {"type": "Point", "coordinates": [-168.66728893490315, 0.005828436156209138]}}, {"type": "Feature", "properties": {"norad_id": 43632, "name": "AZERSPACE 2 (IS-38)", "group": "intelsat", "lat": -0.033588264842797505, "lon": -105.53870476069737, "alt_km": 35781.158876870526, "timestamp": "2025-12-25T07:41:09.390825+00:00", "meta": {"OBJECT_NAME": "AZERSPACE 2 (IS-38)", "OBJECT_ID": "2018-074A", "EPOCH": "2025-12-24T21:52:28.149888", "MEAN_MOTION": 1.00270841, "ECCENTRICITY": 0.00013349, "INCLINATION": 0.0176, "RA_OF_ASC_NODE": 15.565, "ARG_OF_PERICENTER": 263.3362, "MEAN_ANOMALY": 187.9995, "EPHEMERIS_TYPE": 0, "CLASSIFICATION_TYPE": "U", "NORAD_CAT_ID": 43632, "ELEMENT_SET_NO": 999, "REV_AT_EPOCH": 2670, "BSTAR": 0, "MEAN_MOTION_DOT": 1.58e-06, "MEAN_MOTION_DDOT": 0}, "tle": {"line1": "1 43632U 18074A   25358.91143692  .00000158  00000+0  00000+0 0  9998", "line2": "2 43632   0.0176  15.5650 0001334 263.3362 187.9995  1.00270841 26708"}}, "geometry": {"type": "Point", "coordinates": [-105.53870476069737, -0.033588264842797505]}}, {"type": "Feature", "properties": {"norad_id": 43633, "name": "HORIZONS-3E", "group": "intelsat", "lat": -9.655096161267851e-05, "lon": 18.35671296292586, "alt_km": 35785.33840161878, "timestamp": "2025-12-25T07:41:09.390837+00:00", "meta": {"OBJECT_NAME": "HORIZONS-3E", "OBJECT_ID": "2018-074B", "EPOCH": "2025-12-24T12:50:38.701824", "MEAN_MOTION": 1.0026891, "ECCENTRICITY": 6.503e-05, "INCLINATION": 0.0125, "RA_OF_ASC_NODE": 213.101, "ARG_OF_PERICENTER": 109.3498, "MEAN_ANOMALY": 132.5125, "EPHEMERIS_TYPE": 0, "CLASSIFICATION_TYPE": "U", "NORAD_CAT_ID": 43633, "ELEMENT_SET_NO": 999, "REV_AT_EPOCH": 2659, "BSTAR": 0, "MEAN_MOTION_DOT": 0, "MEAN_MOTION_DDOT": 0}, "tle": {"line1": "1 43633U 18074B   25358.53517016  .00000000  00000+0  00000+0 0  9998", "line2": "2 43633   0.0125 213.1010 0000650 109.3498 132.5125  1.00268910 26590"}}, "geometry": {"type": "Point", "coordinates": [18.35671296292586, -9.655096161267851e-05]}}, {"type": "Feature", "properties": {"norad_id": 44333, "name": "AT&T T-16", "group": "intelsat", "lat": 0.03259550650714444, "lon": 108.47863314939129, "alt_km": 35784.718499573304, "timestamp": "2025-12-25T07:41:09.390849+00:00", "meta": {"OBJECT_NAME": "AT&T T-16", "OBJECT_ID": "2019-034A", "EPOCH": "2025-12-23T22:55:25.672800", "MEAN_MOTION": 1.00268558, "ECCENTRICITY": 6.686e-05, "INCLINATION": 0.0228, "RA_OF_ASC_NODE": 67.9518, "ARG_OF_PERICENTER": 76.4171, "MEAN_ANOMALY": 191.3588, "EPHEMERIS_TYPE": 0, "CLASSIFICATION_TYPE": "U", "NORAD_CAT_ID": 44333, "ELEMENT_SET_NO": 999, "REV_AT_EPOCH": 2387, "BSTAR": 0, "MEAN_MOTION_DOT": -9.4e-07, "MEAN_MOTION_DDOT": 0}, "tle": {"line1": "1 44333U 19034A   25357.95515825 -.00000094  00000+0  00000+0 0  9998", "line2": "2 44333   0.0228  67.9518 0000668  76.4171 191.3588  1.00268558 23873"}}, "geometry": {"type": "Point", "coordinates": [108.47863314939129, 0.03259550650714444]}}]}